start=new Date('2022-06-26T00:00:00.000Z').valueOf();
sats=[{"RCS_SIZE":null,"PERIOD":"90.815","LAUNCH_DATE":"2022-06-17","TIME_SYSTEM":"UTC","EPHEMERIS_TYPE":"0","RA_OF_ASC_NODE":"3.6538","NORAD_CAT_ID":"52878","EPOCH":"2022-06-25T22:00:00.999936","BSTAR":"-0.00324610000000","REV_AT_EPOCH":"130","PERIAPSIS":"304.270","ARG_OF_PERICENTER":"58.5533","TLE_LINE2":"2 52878  53.2175   3.6538 0015288  58.5533  73.4754 15.85648546  1309","OBJECT_TYPE":"PAYLOAD","MEAN_MOTION":"15.85648546","CENTER_NAME":"EARTH","ELEMENT_SET_NO":"999","DECAY_DATE":null,"FILE":"3502557","MEAN_MOTION_DOT":"-0.00749009","SITE":"AFETR","INCLINATION":"53.2175","REF_FRAME":"TEME","SEMIMAJOR_AXIS":"6692.636","COUNTRY_CODE":"US","MEAN_ELEMENT_THEORY":"SGP4","TLE_LINE1":"1 52878U 22062BA  22176.91667824 -.00749009  00000-0 -32461-2 0  9992","OBJECT_ID":"2022-062BA","OBJECT_NAME":"STARLINK-4171","CLASSIFICATION_TYPE":"U","MEAN_ANOMALY":"73.4754","APOAPSIS":"324.733","MEAN_MOTION_DDOT":"0.0000000000000","ECCENTRICITY":"0.00152880","GP_ID":"206858481"},{"TLE_LINE2":"2 52879  53.2175   3.6521 0015128  58.4491  74.7244 15.85693613  1300","OBJECT_TYPE":"PAYLOAD","MEAN_MOTION":"15.85693613","CENTER_NAME":"EARTH","ELEMENT_SET_NO":"999","DECAY_DATE":null,"FILE":"3502557","RCS_SIZE":null,"LAUNCH_DATE":"2022-06-17","PERIOD":"90.812","TIME_SYSTEM":"UTC","EPHEMERIS_TYPE":"0","RA_OF_ASC_NODE":"3.6521","EPOCH":"2022-06-25T22:00:00.999936","NORAD_CAT_ID":"52879","BSTAR":"-0.00324130000000","REV_AT_EPOCH":"130","PERIAPSIS":"304.250","ARG_OF_PERICENTER":"58.4491","OBJECT_NAME":"STARLINK-4139","CLASSIFICATION_TYPE":"U","MEAN_ANOMALY":"74.7244","APOAPSIS":"324.499","MEAN_MOTION_DDOT":"0.0000000000000","ECCENTRICITY":"0.00151280","GP_ID":"206858275","MEAN_MOTION_DOT":"-0.00749345","SITE":"AFETR","INCLINATION":"53.2175","REF_FRAME":"TEME","SEMIMAJOR_AXIS":"6692.509","COUNTRY_CODE":"US","TLE_LINE1":"1 52879U 22062BB  22176.91667824 -.00749345  00000-0 -32413-2 0  9993","MEAN_ELEMENT_THEORY":"SGP4","OBJECT_ID":"2022-062BB"},{"ECCENTRICITY":"0.00154400","GP_ID":"206858586","MEAN_MOTION_DDOT":"0.0000000000000","APOAPSIS":"324.740","MEAN_ANOMALY":"73.9899","CLASSIFICATION_TYPE":"U","OBJECT_NAME":"STARLINK-4186","OBJECT_ID":"2022-062BC","COUNTRY_CODE":"US","SEMIMAJOR_AXIS":"6692.542","TLE_LINE1":"1 52880U 22062BC  22176.91667824 -.00749268  00000-0 -32412-2 0  9998","MEAN_ELEMENT_THEORY":"SGP4","REF_FRAME":"TEME","INCLINATION":"53.2175","SITE":"AFETR","MEAN_MOTION_DOT":"-0.00749268","FILE":"3502557","DECAY_DATE":null,"ELEMENT_SET_NO":"999","MEAN_MOTION":"15.85682095","CENTER_NAME":"EARTH","OBJECT_TYPE":"PAYLOAD","TLE_LINE2":"2 52880  53.2175   3.6520 0015440  58.9038  73.9899 15.85682095  1309","ARG_OF_PERICENTER":"58.9038","PERIAPSIS":"304.074","REV_AT_EPOCH":"130","NORAD_CAT_ID":"52880","EPOCH":"2022-06-25T22:00:00.999936","BSTAR":"-0.00324120000000","EPHEMERIS_TYPE":"0","RA_OF_ASC_NODE":"3.6520","PERIOD":"90.813","LAUNCH_DATE":"2022-06-17","TIME_SYSTEM":"UTC","RCS_SIZE":null},{"INCLINATION":"53.2175","SITE":"AFETR","MEAN_MOTION_DOT":"-0.00749313","OBJECT_ID":"2022-062BD","COUNTRY_CODE":"US","SEMIMAJOR_AXIS":"6692.575","TLE_LINE1":"1 52881U 22062BD  22176.91667824 -.00749313  00000-0 -32443-2 0  9994","MEAN_ELEMENT_THEORY":"SGP4","REF_FRAME":"TEME","CLASSIFICATION_TYPE":"U","OBJECT_NAME":"STARLINK-4192","ECCENTRICITY":"0.00152430","GP_ID":"206858032","MEAN_MOTION_DDOT":"0.0000000000000","APOAPSIS":"324.642","MEAN_ANOMALY":"74.4704","PERIOD":"90.813","LAUNCH_DATE":"2022-06-17","TIME_SYSTEM":"UTC","RCS_SIZE":null,"ARG_OF_PERICENTER":"58.1571","PERIAPSIS":"304.239","REV_AT_EPOCH":"130","NORAD_CAT_ID":"52881","EPOCH":"2022-06-25T22:00:00.999936","BSTAR":"-0.00324430000000","EPHEMERIS_TYPE":"0","RA_OF_ASC_NODE":"3.6532","ELEMENT_SET_NO":"999","MEAN_MOTION":"15.85670210","CENTER_NAME":"EARTH","OBJECT_TYPE":"PAYLOAD","TLE_LINE2":"2 52881  53.2175   3.6532 0015243  58.1571  74.4704 15.85670210  1305","FILE":"3502557","DECAY_DATE":null},{"APOAPSIS":"324.527","MEAN_ANOMALY":"74.8509","ECCENTRICITY":"0.00152130","GP_ID":"206858135","MEAN_MOTION_DDOT":"0.0000000000000","OBJECT_NAME":"STARLINK-4181","CLASSIFICATION_TYPE":"U","REF_FRAME":"TEME","OBJECT_ID":"2022-062BE","SEMIMAJOR_AXIS":"6692.480","COUNTRY_CODE":"US","TLE_LINE1":"1 52882U 22062BE  22176.91667824 -.00749466  00000-0 -32398-2 0  9993","MEAN_ELEMENT_THEORY":"SGP4","MEAN_MOTION_DOT":"-0.00749466","INCLINATION":"53.2175","SITE":"AFETR","DECAY_DATE":null,"FILE":"3502557","OBJECT_TYPE":"PAYLOAD","TLE_LINE2":"2 52882  53.2175   3.6509 0015213  58.6346  74.8509 15.85703921  1305","ELEMENT_SET_NO":"999","MEAN_MOTION":"15.85703921","CENTER_NAME":"EARTH","EPOCH":"2022-06-25T22:00:00.999936","NORAD_CAT_ID":"52882","BSTAR":"-0.00323980000000","EPHEMERIS_TYPE":"0","RA_OF_ASC_NODE":"3.6509","ARG_OF_PERICENTER":"58.6346","PERIAPSIS":"304.164","REV_AT_EPOCH":"130","PERIOD":"90.811","LAUNCH_DATE":"2022-06-17","TIME_SYSTEM":"UTC","RCS_SIZE":null}];
